IRIDIUM 63              
1 25286U 98021B   26019.44462757  .00000415  00000+0  13394-3 0  9992
2 25286  86.4003 351.3907 0001994  84.2645 275.8780 14.36770993454892
IRIDIUM 69              
1 25319U 98026A   26019.48434432  .00000350  00000+0  10235-3 0  9996
2 25319  86.3984   3.9772 0004027  57.2926 302.8661 14.41252328454216
IRIDIUM 71              
1 25320U 98026B   26019.46861608  .00000327  00000+0  95022-4 0  9997
2 25320  86.3989 358.6548 0004307  91.0691 269.1003 14.41344887454745
IRIDIUM 73              
1 25344U 98032C   26019.54365263  .00000615  00000+0  14704-3 0  9992
2 25344  86.4439 314.9269 0002209  67.5964 292.5475 14.52048633461953
IRIDIUM 82              
1 25467U 98051A   26019.45471393  .00049725  00000+0  81904-3 0  9992
2 25467  86.3597   2.0616 0057003 181.6068 178.5019 15.50244771457232
